*******************************************************************************
 Revised: April 12, 2021               Jupiter                              599
 
 PHYSICAL DATA (revised 2025-Jan-30):
  Mass x 10^26 (kg)     = 18.9819           Density (g/cm^3)  = 1.3262 +- .0003
  Equat. radius (1 bar) = 71492+-4 km       Polar radius (km)     = 66854+-10
  Vol. Mean Radius (km) = 69911+-6          Flattening            = 0.06487
  Geometric Albedo      = 0.52              Rocky core mass (Mc/M)= 0.0261
  Sid. rot. period (III)= 9h 55m 29.711 s   Sid. rot. rate (rad/s)= 0.00017585
  Mean solar day, hrs   = ~9.9259         
  GM (km^3/s^2)         = 126686531.900     GM 1-sigma (km^3/s^2) =  +- 1.2732
  Equ. grav, ge (m/s^2) = 24.79             Pol. grav, gp (m/s^2) =  28.34
  Vis. magnitude V(1,0) = -9.40
  Vis. mag. (opposition)= -2.70             Obliquity to orbit    =  3.13 deg
  Sidereal orbit period = 11.861982204 y    Sidereal orbit period = 4332.589 d
  Mean daily motion     = 0.0831294 deg/d   Mean orbit speed, km/s= 13.0697
  Atmos. temp. (1 bar)  = 165+-5 K          Escape speed, km/s    =  59.5           
  A_roche(ice)/Rp       =  2.76             Hill's sphere rad. Rp = 740
                                 Perihelion   Aphelion     Mean
  Solar Constant (W/m^2)         56           46           51
  Maximum Planetary IR (W/m^2)   13.7         13.4         13.6
  Minimum Planetary IR (W/m^2)   13.7         13.4         13.6
*******************************************************************************


*******************************************************************************
Ephemeris / WWW_USER Tue Apr 14 10:22:44 2026 Pasadena, USA      / Horizons    
*******************************************************************************
Target body name: Jupiter (599)                   {source: jup365_merged}
Center body name: Earth (399)                     {source: DE441}
Center-site name: GEOCENTRIC
*******************************************************************************
Start time      : A.D. 2025-Jan-01 00:00:00.0000 UT      
Stop  time      : A.D. 2032-Jan-01 00:00:00.0000 UT      
Step-size       : 7200 minutes
*******************************************************************************
Target pole/equ : IAU_JUPITER                     {West-longitude positive}
Target radii    : 71492.0, 71492.0, 66854.0 km    {Equator_a, b, pole_c}       
Center geodetic : 0.0, 0.0, -6378.137             {E-lon(deg),Lat(deg),Alt(km)}
Center cylindric: 0.0, 0.0, 0.0                   {E-lon(deg),Dxy(km),Dz(km)}
Center pole/equ : ITRF93                          {East-longitude positive}
Center radii    : 6378.137, 6378.137, 6356.752 km {Equator_a, b, pole_c}       
Target primary  : Sun
Vis. interferer : MOON (R_eq= 1737.400) km        {source: DE441}
Rel. light bend : Sun                             {source: jup365_merged}
Rel. lght bnd GM: 1.3271E+11 km^3/s^2                                          
Atmos refraction: NO (AIRLESS)
RA format       : DEG
Time format     : CAL 
Calendar mode   : Mixed Julian/Gregorian
EOP file        : eop.260413.p260710                                           
EOP coverage    : DATA-BASED 1962-JAN-20 TO 2026-APR-13. PREDICTS-> 2026-JUL-09
Units conversion: 1 au= 149597870.700 km, c= 299792.458 km/s, 1 day= 86400.0 s 
Table cut-offs 1: Elevation (-90.0deg=NO ),Airmass (>38.000=NO), Daylight (NO )
Table cut-offs 2: Solar elongation (  0.0,180.0=NO ),Local Hour Angle( 0.0=NO )
Table cut-offs 3: RA/DEC angular rate (     0.0=NO )                           
Table format    : Comma Separated Values (spreadsheet)
*******************************************************************************
 Date__(UT)__HR:MN, , ,    ObsEcLon,   ObsEcLat,
************************************************
$$SOE
 2028-Jun-14 00:00, , , 168.9563214,  1.2819859,
 2028-Jun-19 00:00, , , 169.4260297,  1.2655769,
 2028-Jun-24 00:00, , , 169.9553928,  1.2497376,
 2028-Jun-29 00:00, , , 170.5407828,  1.2345638,
 2028-Jul-04 00:00, , , 171.1787194,  1.2201415,
 2028-Jul-09 00:00, , , 171.8657335,  1.2064900,
 2028-Jul-14 00:00, , , 172.5984047,  1.1935940,
 2028-Jul-19 00:00, , , 173.3742283,  1.1814540,
 2028-Jul-24 00:00, , , 174.1903058,  1.1701034,
 2028-Jul-29 00:00, , , 175.0430650,  1.1595995,
 2028-Aug-03 00:00, , , 175.9295772,  1.1499600,
 2028-Aug-08 00:00, , , 176.8465416,  1.1411565,
 2028-Aug-13 00:00, , , 177.7914416,  1.1331597,
 2028-Aug-18 00:00, , , 178.7621408,  1.1259679,
 2028-Aug-23 00:00, , , 179.7556157,  1.1196183,
 2028-Aug-28 00:00, , , 180.7691276,  1.1141463,
 2028-Sep-02 00:00, , , 181.7997847,  1.1095338,
 2028-Sep-07 00:00, , , 182.8448817,  1.1057456,
 2028-Sep-12 00:00, , , 183.9025457,  1.1027665,
 2028-Sep-17 00:00, , , 184.9703944,  1.1006148,
 2028-Sep-22 00:00, , , 186.0455463,  1.0993352,
 2028-Sep-27 00:00, , , 187.1255264,  1.0989491,
 2028-Oct-02 00:00, , , 188.2071587,  1.0994396,
 2028-Oct-07 00:00, , , 189.2884537,  1.1006813,
 2028-Oct-12 00:00, , , 190.3672352,  1.1028017,
 2028-Oct-17 00:00, , , 191.4405943,  1.1058025,
 2028-Oct-22 00:00, , , 192.5058079,  1.1097202,
 2028-Oct-27 00:00, , , 193.5597086,  1.1145422,
 2028-Nov-01 00:00, , , 194.5993240,  1.1202404,
 2028-Nov-06 00:00, , , 195.6223499,  1.1268087,
 2028-Nov-11 00:00, , , 196.6258808,  1.1342755,
 2028-Nov-16 00:00, , , 197.6066168,  1.1426896,
 2028-Nov-21 00:00, , , 198.5613256,  1.1520621,
 2028-Nov-26 00:00, , , 199.4860830,  1.1623576,
 2028-Dec-01 00:00, , , 200.3779280,  1.1735490,
 2028-Dec-06 00:00, , , 201.2339035,  1.1856390,
 2028-Dec-11 00:00, , , 202.0501488,  1.1986609,
 2028-Dec-16 00:00, , , 202.8231159,  1.2126329,
 2028-Dec-21 00:00, , , 203.5486212,  1.2275127,
 2028-Dec-26 00:00, , , 204.2226979,  1.2432302,
 2028-Dec-31 00:00, , , 204.8422902,  1.2597339,
 2029-Jan-05 00:00, , , 205.4038187,  1.2770042,
 2029-Jan-10 00:00, , , 205.9034781,  1.2950273,
 2029-Jan-15 00:00, , , 206.3376310,  1.3137277,
 2029-Jan-20 00:00, , , 206.7023648,  1.3329661,
 2029-Jan-25 00:00, , , 206.9951078,  1.3525951,
 2029-Jan-30 00:00, , , 207.2137181,  1.3724870,
 2029-Feb-04 00:00, , , 207.3558684,  1.3925348,
 2029-Feb-09 00:00, , , 207.4200830,  1.4125935,
 2029-Feb-14 00:00, , , 207.4048244,  1.4324258,
 2029-Feb-19 00:00, , , 207.3100108,  1.4517576,
 2029-Feb-24 00:00, , , 207.1373948,  1.4703314,
 2029-Mar-01 00:00, , , 206.8891761,  1.4879203,
 2029-Mar-06 00:00, , , 206.5684664,  1.5043114,
 2029-Mar-11 00:00, , , 206.1795237,  1.5192248,
 2029-Mar-16 00:00, , , 205.7275503,  1.5323354,
 2029-Mar-21 00:00, , , 205.2201150,  1.5433546,
 2029-Mar-26 00:00, , , 204.6660766,  1.5520676,
 2029-Mar-31 00:00, , , 204.0746315,  1.5583381,
 2029-Apr-05 00:00, , , 203.4558828,  1.5620475,
 2029-Apr-10 00:00, , , 202.8199150,  1.5630470,
 2029-Apr-15 00:00, , , 202.1780962,  1.5612438,
 2029-Apr-20 00:00, , , 201.5424676,  1.5566502,
 2029-Apr-25 00:00, , , 200.9241411,  1.5493850,
 2029-Apr-30 00:00, , , 200.3335809,  1.5396306,
 2029-May-05 00:00, , , 199.7801918,  1.5275445,
 2029-May-10 00:00, , , 199.2722205,  1.5132756,
 2029-May-15 00:00, , , 198.8181416,  1.4970415,
 2029-May-20 00:00, , , 198.4249299,  1.4791305,
 2029-May-25 00:00, , , 198.0975581,  1.4598662,
 2029-May-30 00:00, , , 197.8400229,  1.4395356,
 2029-Jun-04 00:00, , , 197.6544985,  1.4183454,
 2029-Jun-09 00:00, , , 197.5429711,  1.3964968,
 2029-Jun-14 00:00, , , 197.5069295,  1.3742247,
 2029-Jun-19 00:00, , , 197.5462813,  1.3517822,
 2029-Jun-24 00:00, , , 197.6601049,  1.3293960,
 2029-Jun-29 00:00, , , 197.8466028,  1.3072047,
 2029-Jul-04 00:00, , , 198.1034543,  1.2852938,
 2029-Jul-09 00:00, , , 198.4290733,  1.2637672,
 2029-Jul-14 00:00, , , 198.8211022,  1.2427524,
 2029-Jul-19 00:00, , , 199.2764301,  1.2223793,
 2029-Jul-24 00:00, , , 199.7921138,  1.2027223,
 2029-Jul-29 00:00, , , 200.3643849,  1.1837896,
 2029-Aug-03 00:00, , , 200.9903027,  1.1655878,
 2029-Aug-08 00:00, , , 201.6673799,  1.1481555,
 2029-Aug-13 00:00, , , 202.3923087,  1.1315549,
 2029-Aug-18 00:00, , , 203.1618890,  1.1158321,
 2029-Aug-23 00:00, , , 203.9727284,  1.1009727,
 2029-Aug-28 00:00, , , 204.8214478,  1.0869399,
 2029-Sep-02 00:00, , , 205.7056722,  1.0737248,
 2029-Sep-07 00:00, , , 206.6227042,  1.0613503,
 2029-Sep-12 00:00, , , 207.5695278,  1.0498513,
 2029-Sep-17 00:00, , , 208.5433565,  1.0392257,
 2029-Sep-22 00:00, , , 209.5407342,  1.0294274,
 2029-Sep-27 00:00, , , 210.5592720,  1.0204246,
 2029-Oct-02 00:00, , , 211.5968043,  1.0122205,
 2029-Oct-07 00:00, , , 212.6505104,  1.0048414,
 2029-Oct-12 00:00, , , 213.7178793,  0.9983058,
 2029-Oct-17 00:00, , , 214.7958724,  0.9925810,
 2029-Oct-22 00:00, , , 215.8815024,  0.9876256,
 2029-Oct-27 00:00, , , 216.9727345,  0.9834358,
 2029-Nov-01 00:00, , , 218.0669950,  0.9800742,
 2029-Nov-06 00:00, , , 219.1617186,  0.9773974,
 2029-Nov-11 00:00, , , 220.2541016,  0.9755853,
 2029-Nov-16 00:00, , , 221.3406805,  0.9745341,
 2029-Nov-21 00:00, , , 222.4189604,  0.9742183,
 2029-Nov-26 00:00, , , 223.4864775,  0.9746481,
 2029-Dec-01 00:00, , , 224.5402378,  0.9758539,
 2029-Dec-06 00:00, , , 225.5774659,  0.9778537,
 2029-Dec-11 00:00, , , 226.5945692,  0.9806172,
 2029-Dec-16 00:00, , , 227.5880107,  0.9841014,
 2029-Dec-21 00:00, , , 228.5552019,  0.9882975,
 2029-Dec-26 00:00, , , 229.4929112,  0.9932265,
 2029-Dec-31 00:00, , , 230.3977428,  0.9989123,
 2030-Jan-05 00:00, , , 231.2663737,  1.0053391,
 2030-Jan-10 00:00, , , 232.0944261,  1.0124475,
 2030-Jan-15 00:00, , , 232.8785636,  1.0201945,
 2030-Jan-20 00:00, , , 233.6156130,  1.0285699,
 2030-Jan-25 00:00, , , 234.3019035,  1.0375774,
 2030-Jan-30 00:00, , , 234.9340059,  1.0471988,
 2030-Feb-04 00:00, , , 235.5077530,  1.0573550,
 2030-Feb-09 00:00, , , 236.0192775,  1.0679456,
 2030-Feb-14 00:00, , , 236.4657396,  1.0789007,
 2030-Feb-19 00:00, , , 236.8440568,  1.0901697,
 2030-Feb-24 00:00, , , 237.1515008,  1.1016926,
 2030-Mar-01 00:00, , , 237.3854650,  1.1133503,
